<?xml version="1.0" encoding="UTF-8"?>
<ndm xmlns:xsi="http://www.w3.org/2001/XMLSchema-instance" xsi:noNamespaceSchemaLocation="https://sanaregistry.org/r/ndmxml_unqualified/ndmxml-2.0.0-master-2.0.xsd">
<omm id="CCSDS_OMM_VERS" version="2.0">
<header><CREATION_DATE/><ORIGINATOR/></header><body><segment><metadata><OBJECT_NAME>IRIDIUM 112</OBJECT_NAME><OBJECT_ID>2017-003J</OBJECT_ID><CENTER_NAME>EARTH</CENTER_NAME><REF_FRAME>TEME</REF_FRAME><TIME_SYSTEM>UTC</TIME_SYSTEM><MEAN_ELEMENT_THEORY>SGP4</MEAN_ELEMENT_THEORY></metadata><data><meanElements><EPOCH>2024-09-23T12:27:33.880032</EPOCH><MEAN_MOTION>14.34217255</MEAN_MOTION><ECCENTRICITY>.0002076</ECCENTRICITY><INCLINATION>86.4027</INCLINATION><RA_OF_ASC_NODE>352.2801</RA_OF_ASC_NODE><ARG_OF_PERICENTER>86.2625</ARG_OF_PERICENTER><MEAN_ANOMALY>273.8808</MEAN_ANOMALY></meanElements><tleParameters><EPHEMERIS_TYPE>0</EPHEMERIS_TYPE><CLASSIFICATION_TYPE>U</CLASSIFICATION_TYPE><NORAD_CAT_ID>41925</NORAD_CAT_ID><ELEMENT_SET_NO>999</ELEMENT_SET_NO><REV_AT_EPOCH>40276</REV_AT_EPOCH><BSTAR>.23304E-3</BSTAR><MEAN_MOTION_DOT>.672E-5</MEAN_MOTION_DOT><MEAN_MOTION_DDOT>0</MEAN_MOTION_DDOT></tleParameters></data></segment></body></omm>
<omm id="CCSDS_OMM_VERS" version="2.0">
<header><CREATION_DATE/><ORIGINATOR/></header><body><segment><metadata><OBJECT_NAME>IRIDIUM 111</OBJECT_NAME><OBJECT_ID>2017-003K</OBJECT_ID><CENTER_NAME>EARTH</CENTER_NAME><REF_FRAME>TEME</REF_FRAME><TIME_SYSTEM>UTC</TIME_SYSTEM><MEAN_ELEMENT_THEORY>SGP4</MEAN_ELEMENT_THEORY></metadata><data><meanElements><EPOCH>2024-09-22T16:03:42.240096</EPOCH><MEAN_MOTION>14.34217589</MEAN_MOTION><ECCENTRICITY>.000191</ECCENTRICITY><INCLINATION>86.4028</INCLINATION><RA_OF_ASC_NODE>352.6913</RA_OF_ASC_NODE><ARG_OF_PERICENTER>91.3952</ARG_OF_PERICENTER><MEAN_ANOMALY>268.7463</MEAN_ANOMALY></meanElements><tleParameters><EPHEMERIS_TYPE>0</EPHEMERIS_TYPE><CLASSIFICATION_TYPE>U</CLASSIFICATION_TYPE><NORAD_CAT_ID>41926</NORAD_CAT_ID><ELEMENT_SET_NO>999</ELEMENT_SET_NO><REV_AT_EPOCH>40259</REV_AT_EPOCH><BSTAR>.22716E-3</BSTAR><MEAN_MOTION_DOT>.656E-5</MEAN_MOTION_DOT><MEAN_MOTION_DDOT>0</MEAN_MOTION_DDOT></tleParameters></data></segment></body></omm>
<omm id="CCSDS_OMM_VERS" version="2.0">
<header><CREATION_DATE/><ORIGINATOR/></header><body><segment><metadata><OBJECT_NAME>IRIDIUM 113</OBJECT_NAME><OBJECT_ID>2017-039A</OBJECT_ID><CENTER_NAME>EARTH</CENTER_NAME><REF_FRAME>TEME</REF_FRAME><TIME_SYSTEM>UTC</TIME_SYSTEM><MEAN_ELEMENT_THEORY>SGP4</MEAN_ELEMENT_THEORY></metadata><data><meanElements><EPOCH>2024-09-22T20:36:15.214752</EPOCH><MEAN_MOTION>14.34217027</MEAN_MOTION><ECCENTRICITY>.000208</ECCENTRICITY><INCLINATION>86.3981</INCLINATION><RA_OF_ASC_NODE>226.3519</RA_OF_ASC_NODE><ARG_OF_PERICENTER>82.5880</ARG_OF_PERICENTER><MEAN_ANOMALY>277.5552</MEAN_ANOMALY></meanElements><tleParameters><EPHEMERIS_TYPE>0</EPHEMERIS_TYPE><CLASSIFICATION_TYPE>U</CLASSIFICATION_TYPE><NORAD_CAT_ID>42803</NORAD_CAT_ID><ELEMENT_SET_NO>999</ELEMENT_SET_NO><REV_AT_EPOCH>38055</REV_AT_EPOCH><BSTAR>.11464E-3</BSTAR><MEAN_MOTION_DOT>.341E-5</MEAN_MOTION_DOT><MEAN_MOTION_DDOT>0</MEAN_MOTION_DDOT></tleParameters></data></segment></body></omm>
<omm id="CCSDS_OMM_VERS" version="2.0">
<header><CREATION_DATE/><ORIGINATOR/></header><body><segment><metadata><OBJECT_NAME>IRIDIUM 123</OBJECT_NAME><OBJECT_ID>2017-039B</OBJECT_ID><CENTER_NAME>EARTH</CENTER_NAME><REF_FRAME>TEME</REF_FRAME><TIME_SYSTEM>UTC</TIME_SYSTEM><MEAN_ELEMENT_THEORY>SGP4</MEAN_ELEMENT_THEORY></metadata><data><meanElements><EPOCH>2024-09-22T16:34:34.940352</EPOCH><MEAN_MOTION>14.34217894</MEAN_MOTION><ECCENTRICITY>.0002158</ECCENTRICITY><INCLINATION>86.3912</INCLINATION><RA_OF_ASC_NODE>257.9126</RA_OF_ASC_NODE><ARG_OF_PERICENTER>91.9590</ARG_OF_PERICENTER><MEAN_ANOMALY>268.1853</MEAN_ANOMALY></meanElements><tleParameters><EPHEMERIS_TYPE>0</EPHEMERIS_TYPE><CLASSIFICATION_TYPE>U</CLASSIFICATION_TYPE><NORAD_CAT_ID>42804</NORAD_CAT_ID><ELEMENT_SET_NO>999</ELEMENT_SET_NO><REV_AT_EPOCH>37929</REV_AT_EPOCH><BSTAR>.23449E-4</BSTAR><MEAN_MOTION_DOT>.85E-6</MEAN_MOTION_DOT><MEAN_MOTION_DDOT>0</MEAN_MOTION_DDOT></tleParameters></data></segment></body></omm>
<omm id="CCSDS_OMM_VERS" version="2.0">
<header><CREATION_DATE/><ORIGINATOR/></header><body><segment><metadata><OBJECT_NAME>IRIDIUM 120</OBJECT_NAME><OBJECT_ID>2017-039C</OBJECT_ID><CENTER_NAME>EARTH</CENTER_NAME><REF_FRAME>TEME</REF_FRAME><TIME_SYSTEM>UTC</TIME_SYSTEM><MEAN_ELEMENT_THEORY>SGP4</MEAN_ELEMENT_THEORY></metadata><data><meanElements><EPOCH>2024-09-22T20:27:06.949728</EPOCH><MEAN_MOTION>14.34216032</MEAN_MOTION><ECCENTRICITY>.0002281</ECCENTRICITY><INCLINATION>86.3970</INCLINATION><RA_OF_ASC_NODE>226.2200</RA_OF_ASC_NODE><ARG_OF_PERICENTER>86.9688</ARG_OF_PERICENTER><MEAN_ANOMALY>273.1769</MEAN_ANOMALY></meanElements><tleParameters><EPHEMERIS_TYPE>0</EPHEMERIS_TYPE><CLASSIFICATION_TYPE>U</CLASSIFICATION_TYPE><NORAD_CAT_ID>42805</NORAD_CAT_ID><ELEMENT_SET_NO>999</ELEMENT_SET_NO><REV_AT_EPOCH>38054</REV_AT_EPOCH><BSTAR>-.74633E-5</BSTAR><MEAN_MOTION_DOT>-.1E-7</MEAN_MOTION_DOT><MEAN_MOTION_DDOT>0</MEAN_MOTION_DDOT></tleParameters></data></segment></body></omm>
<omm id="CCSDS_OMM_VERS" version="2.0">
<header><CREATION_DATE/><ORIGINATOR/></header><body><segment><metadata><OBJECT_NAME>IRIDIUM 115</OBJECT_NAME><OBJECT_ID>2017-039D</OBJECT_ID><CENTER_NAME>EARTH</CENTER_NAME><REF_FRAME>TEME</REF_FRAME><TIME_SYSTEM>UTC</TIME_SYSTEM><MEAN_ELEMENT_THEORY>SGP4</MEAN_ELEMENT_THEORY></metadata><data><meanElements><EPOCH>2024-09-22T23:02:24.037152</EPOCH><MEAN_MOTION>14.43286839</MEAN_MOTION><ECCENTRICITY>.0001945</ECCENTRICITY><INCLINATION>86.4509</INCLINATION><RA_OF_ASC_NODE>226.2129</RA_OF_ASC_NODE><ARG_OF_PERICENTER>79.0131</ARG_OF_PERICENTER><MEAN_ANOMALY>281.1289</MEAN_ANOMALY></meanElements><tleParameters><EPHEMERIS_TYPE>0</EPHEMERIS_TYPE><CLASSIFICATION_TYPE>U</CLASSIFICATION_TYPE><NORAD_CAT_ID>42806</NORAD_CAT_ID><ELEMENT_SET_NO>999</ELEMENT_SET_NO><REV_AT_EPOCH>38307</REV_AT_EPOCH><BSTAR>.27861E-3</BSTAR><MEAN_MOTION_DOT>.957E-5</MEAN_MOTION_DOT><MEAN_MOTION_DDOT>0</MEAN_MOTION_DDOT></tleParameters></data></segment></body></omm>
<omm id="CCSDS_OMM_VERS" version="2.0">
<header><CREATION_DATE/><ORIGINATOR/></header><body><segment><metadata><OBJECT_NAME>IRIDIUM 118</OBJECT_NAME><OBJECT_ID>2017-039E</OBJECT_ID><CENTER_NAME>EARTH</CENTER_NAME><REF_FRAME>TEME</REF_FRAME><TIME_SYSTEM>UTC</TIME_SYSTEM><MEAN_ELEMENT_THEORY>SGP4</MEAN_ELEMENT_THEORY></metadata><data><meanElements><EPOCH>2024-09-23T11:45:22.959648</EPOCH><MEAN_MOTION>14.34218790</MEAN_MOTION><ECCENTRICITY>.0002413</ECCENTRICITY><INCLINATION>86.3914</INCLINATION><RA_OF_ASC_NODE>257.5788</RA_OF_ASC_NODE><ARG_OF_PERICENTER>89.8115</ARG_OF_PERICENTER><MEAN_ANOMALY>270.3357</MEAN_ANOMALY></meanElements><tleParameters><EPHEMERIS_TYPE>0</EPHEMERIS_TYPE><CLASSIFICATION_TYPE>U</CLASSIFICATION_TYPE><NORAD_CAT_ID>42807</NORAD_CAT_ID><ELEMENT_SET_NO>999</ELEMENT_SET_NO><REV_AT_EPOCH>37941</REV_AT_EPOCH><BSTAR>.1086E-3</BSTAR><MEAN_MOTION_DOT>.324E-5</MEAN_MOTION_DOT><MEAN_MOTION_DDOT>0</MEAN_MOTION_DDOT></tleParameters></data></segment></body></omm>
<omm id="CCSDS_OMM_VERS" version="2.0">
<header><CREATION_DATE/><ORIGINATOR/></header><body><segment><metadata><OBJECT_NAME>IRIDIUM 117</OBJECT_NAME><OBJECT_ID>2017-039F</OBJECT_ID><CENTER_NAME>EARTH</CENTER_NAME><REF_FRAME>TEME</REF_FRAME><TIME_SYSTEM>UTC</TIME_SYSTEM><MEAN_ELEMENT_THEORY>SGP4</MEAN_ELEMENT_THEORY></metadata><data><meanElements><EPOCH>2024-09-23T05:30:54.849600</EPOCH><MEAN_MOTION>14.34217776</MEAN_MOTION><ECCENTRICITY>.0002094</ECCENTRICITY><INCLINATION>86.3912</INCLINATION><RA_OF_ASC_NODE>257.6514</RA_OF_ASC_NODE><ARG_OF_PERICENTER>88.1381</ARG_OF_PERICENTER><MEAN_ANOMALY>272.0055</MEAN_ANOMALY></meanElements><tleParameters><EPHEMERIS_TYPE>0</EPHEMERIS_TYPE><CLASSIFICATION_TYPE>U</CLASSIFICATION_TYPE><NORAD_CAT_ID>42808</NORAD_CAT_ID><ELEMENT_SET_NO>999</ELEMENT_SET_NO><REV_AT_EPOCH>37940</REV_AT_EPOCH><BSTAR>.29392E-4</BSTAR><MEAN_MOTION_DOT>.102E-5</MEAN_MOTION_DOT><MEAN_MOTION_DDOT>0</MEAN_MOTION_DDOT></tleParameters></data></segment></body></omm>

</ndm>
