IRIDIUM 112             
1 41925U 17003J   24267.51914213  .00000672  00000+0  23304-3 0  9998
2 41925  86.4027 352.2801 0002076  86.2625 273.8808 14.34217255402764
IRIDIUM 111             
1 41926U 17003K   24266.66923889  .00000656  00000+0  22716-3 0  9991
2 41926  86.4028 352.6913 0001910  91.3952 268.7463 14.34217589402591
IRIDIUM 113             
1 42803U 17039A   24266.85850943  .00000341  00000+0  11464-3 0  9995
2 42803  86.3981 226.3519 0002080  82.5880 277.5552 14.34217027380558
IRIDIUM 123             
1 42804U 17039B   24266.69068218  .00000085  00000+0  23449-4 0  9996
2 42804  86.3912 257.9126 0002158  91.9590 268.1853 14.34217894379296
IRIDIUM 120             
1 42805U 17039C   24266.85216377 -.00000001  00000+0 -74633-5 0  9998
2 42805  86.3970 226.2200 0002281  86.9688 273.1769 14.34216032380547
IRIDIUM 115             
1 42806U 17039D   24266.96000043  .00000957  00000+0  27861-3 0  9999
2 42806  86.4509 226.2129 0001945  79.0131 281.1289 14.43286839383078
IRIDIUM 118             
1 42807U 17039E   24267.48984907  .00000324  00000+0  10860-3 0  9997
2 42807  86.3914 257.5788 0002413  89.8115 270.3357 14.34218790379418
IRIDIUM 117             
1 42808U 17039F   24267.22980150  .00000102  00000+0  29392-4 0  9991
2 42808  86.3912 257.6514 0002094  88.1381 272.0055 14.34217776379403
